ONEWEB-0553             
1 56055U 23043K   24047.93998925 -.00000004  00000+0 -44741-4 0  9993
2 56055  87.9055  38.1898 0001381  92.3504 267.7785 13.16593265 46968
ONEWEB-0554             
1 56056U 23043L   24047.92730725 -.00003488  00000+0 -91588-2 0  9993
2 56056  87.9056  38.2100 0002543  96.4811 263.6610 13.16602664 46948
ONEWEB-0555             
1 56057U 23043M   24047.88931132  .00000085  00000+0  18748-3 0  9990
2 56057  87.9059  38.1926 0001510 110.3154 249.8140 13.16596164 46947
ONEWEB-0557             
1 56058U 23043N   24047.90357629  .00000039  00000+0  67986-4 0  9995
2 56058  87.9057  38.2160 0001917 121.6355 238.4963 13.16594531 46949
ONEWEB-0558             
1 56059U 23043P   24047.93371459  .00000039  00000+0  62470-4 0  9999
2 56059  87.9208  53.4153 0002085  74.9075 285.2290 13.21824511 45789
ONEWEB-0559             
1 56060U 23043Q   24047.92266818  .00000007  00000+0 -15787-4 0  9997
2 56060  87.9206  53.4171 0002516  85.2806 274.8616 13.21823941 45798
ONEWEB-0566             
1 56061U 23043R   24047.91637554  .00000011  00000+0 -39747-5 0  9994
2 56061  87.9206  53.4194 0002291  70.6896 289.4485 13.21826840 45776
ONEWEB-0568             
1 56062U 23043S   24047.92099388 -.00000045  00000+0 -15238-3 0  9998
2 56062  87.9056  38.1766 0001535  94.7718 265.3588 13.16594112 46962
